satname,norad_id,inclination_deg,eccentricity,mean_motion_rev_per_day,perigee_km,apogee_km,l1,l2
STARLINK-1422,45696,53.1525,0.000167,15.40525961,443.4165662746036,445.69534572190787,1 45696U 20035AR  26203.84196071  .00044862  00000+0  10919-2 0  9994,2 45696  53.1525 138.1928 0001670 103.6362 256.4830 15.40525961339719
STARLINK-1351,45697,53.0413,8.47e-05,15.70640454,356.4949901164273,357.6359334134495,1 45697U 20035AS  26203.38869461  .00060342  00000+0  48033-3 0  9994,2 45697  53.0413  82.5577 0000847  21.0467 339.0585 15.70640454340435
STARLINK-1400,45700,53.0419,0.0001289,15.75624613,341.9880239722261,343.72069554477093,1 45700U 20035AV  26203.82749832 -.00027354  00000+0 -17187-3 0  9991,2 45700  53.0419  81.9764 0001289 155.0304 205.0777 15.75624613340479
STARLINK-1403,45701,53.1528,0.0004492,15.37445377,450.59783609395345,456.73552852214016,1 45701U 20035AW  26203.79426964  .00040454  00000+0  10902-2 0  9997,2 45701  53.1528 126.7144 0004492  56.8551 303.2883 15.37445377339869
STARLINK-1407,45703,53.0266,0.0003591,15.82067,322.1891561201728,327.00305903803564,1 45703U 20035AY  26203.88335239  .00123834  00000+0  58830-3 0  9990,2 45703  53.0266   6.0133 0003591 219.9767 140.0990 15.82067000341544
STARLINK-1423,45710,53.0412,0.0003184,15.74096578,345.06185480082695,349.34455144217554,1 45710U 20035BF  26203.37331771  .00074228  00000+0  50852-3 0  9997,2 45710  53.0412  80.6235 0003184 211.4330 148.6498 15.74096578340445
STARLINK-1433,45711,53.0415,0.0001627,15.80211808,328.74976534638245,330.9325414374953,1 45711U 20035BG  26203.82305486  .00041608  00000+0  21984-3 0  9992,2 45711  53.0415  75.7469 0001627 204.9317 155.1626 15.80211808340555
STARLINK-1434,45712,53.0477,0.0002927,15.37818327,450.56273105481887,454.56142229430316,1 45712U 20035BH  26202.78152466  .00035024  00000+0  93468-3 0  9996,2 45712  53.0477 113.3960 0002927 108.9469 251.1851 15.37818327339954
STARLINK-1465,45731,53.0423,0.000331,15.73316748,347.1985173470657,351.65216361646435,1 45731U 20038B   26203.52475649  .00068183  00000+0  48369-3 0  9996,2 45731  53.0423 284.3671 0003310 349.0875  11.0071 15.73316748337450
STARLINK-1471,45735,53.0424,0.0003003,15.56529802,395.67453966045196,399.7441129640347,1 45735U 20038F   26203.45171527  .00052569  00000+0  72976-3 0  9992,2 45735  53.0424 212.9009 0003003  10.4652 349.6421 15.56529802338467
STARLINK-1480,45741,53.0453,0.0001235,15.6973262,358.8299032364148,360.4941395947044,1 45741U 20038M   26203.60142265  .00059366  00000+0  49085-3 0  9990,2 45741  53.0453 278.7670 0001235 125.8186 234.2945 15.69732620337555
STARLINK-1500,45744,53.0335,0.0003153,15.41281929,440.17435222421136,444.47533546294017,1 45744U 20038Q   26203.69689908  .00026387  00000+0  63176-3 0  9996,2 45744  53.0335 276.1834 0003153 354.9552   5.1419 15.41281929337590
STARLINK-1504,45746,53.0176,0.0002479,15.61982776,380.2543963111284,383.6060376373034,1 45746U 20038S   26203.30031928  .00040406  00000+0  45837-3 0  9991,2 45746  53.0176 208.3705 0002479  13.8270 346.2810 15.61982776338491
STARLINK-1506,45747,53.0737,0.0002803,15.29462033,475.4977793247326,479.34100423796554,1 45747U 20038T   26203.67030609  .00020618  00000+0  72243-3 0  9991,2 45747  53.0737 296.3481 0002803 341.0537  19.0358 15.29462033337322
STARLINK-1464,45751,53.0445,0.000137,15.56672587,396.3667450950634,398.223213457386,1 45751U 20038X   26203.91311068  .00062093  00000+0  85528-3 0  9997,2 45751  53.0445 274.3134 0001370 130.2560 229.8571 15.56672587337646
STARLINK-1477,45754,53.0474,0.0001035,15.21107811,501.7856972621521,503.2099886746473,1 45754U 20038AA  26203.68700593  .00020956  00000+0  94205-3 0  9993,2 45754  53.0474 316.1105 0001035  10.8050 349.2968 15.21107811337034
STARLINK-1478,45755,53.0431,0.0004436,15.76118511,338.46940198358243,344.4310197570676,1 45755U 20038AB  26203.49673882  .00079999  00000+0  50119-3 0  9990,2 45755  53.0431 255.4046 0004436  22.0820 338.0389 15.76118511337857
STARLINK-1493,45759,53.0439,0.0001978,15.69611567,358.67563753935883,361.341247876494,1 45759U 20038AF  26203.86361550  .00068103  00000+0  56458-3 0  9998,2 45759  53.0439 265.0520 0001978 110.9291 249.1937 15.69611567337751
STARLINK-1502,45764,53.0418,0.000375,15.68797155,359.81255100096223,364.8679089234347,1 45764U 20038AL  26203.88959732  .00061702  00000+0  52972-3 0  9996,2 45764  53.0418 269.1530 0003750  22.1338 337.9839 15.68797155337716
STARLINK-1470,45772,53.0405,0.0001565,15.38549483,449.3291637083439,451.4664951099485,1 45772U 20038AU  26203.45068556  .00030114  00000+0  78679-3 0  9998,2 45772  53.0405 263.4941 0001565  29.8359 330.2733 15.38549483337752
STARLINK-1482,45773,53.1546,0.000143,15.41502735,440.6982833663851,442.64874917403813,1 45773U 20038AV  26203.64147931  .00034137  00000+0  80788-3 0  9998,2 45773  53.1546 278.7043 0001430  48.2802 311.8326 15.41502735337588
STARLINK-1496,45780,53.0419,0.0006537,15.74215625,342.46800507422176,351.2602715624589,1 45780U 20038BC  26203.38941902  .00074747  00000+0  50895-3 0  9994,2 45780  53.0419 240.3721 0006537  22.3130 337.8172 15.74215625338057
STARLINK-1513,45786,53.158,0.0002082,15.32011972,468.38443814068887,471.2359233467514,1 45786U 20038BJ  26203.92473863  .00031219  00000+0  10038-2 0  9997,2 45786  53.1580 281.9331 0002082  62.8619 297.2595 15.32011972337569
STARLINK-1522,46027,53.0618,0.0001616,15.14801399,520.466567033629,522.6965560727222,1 46027U 20055A   26203.38491144  .00012123  00000+0  66045-3 0  9990,2 46027  53.0618 236.5701 0001616  59.0506 301.0645 15.14801399329269
STARLINK-1523,46028,53.1584,0.0005059,15.33367457,462.31156308955633,469.2362321357614,1 46028U 20055B   26203.34375221  .00027180  00000+0  83930-3 0  9995,2 46028  53.1584 220.6792 0005059  28.5998 331.5281 15.33367457329524
STARLINK-1526,46029,53.1572,9.85e-05,15.31711923,470.02984273043967,471.37906449680213,1 46029U 20055C   26203.74691090  .00000904  00000+0  40874-4 0  9991,2 46029  53.1572 218.9876 0000985  71.8124 288.2984 15.31711923329572
STARLINK-1555,46032,53.158,0.0001103,15.31724494,469.91155778012217,471.4224039383007,1 46032U 20055F   26203.34142277  .00005716  00000+0  19567-3 0  9999,2 46032  53.1580 220.8897 0001103  68.6906 291.4214 15.31724494329518
STARLINK-1556,46033,53.1589,9.89e-05,15.31703065,470.05350560415354,471.40821166659225,1 46033U 20055G   26203.77953897  .00000279  00000+0  20737-4 0  9996,2 46033  53.1589 218.8419 0000989  69.9062 290.2045 15.31703065329557
STARLINK-1557,46034,53.1582,0.000106,15.31703143,470.0046461538477,471.4566060905854,1 46034U 20055H   26203.46261804 -.00000792  00000+0 -13754-4 0  9996,2 46034  53.1582 220.3799 0001060  59.7735 300.3372 15.31703143329503
STARLINK-1558,46035,53.1582,0.000105,15.31722012,469.9552541900248,471.3935045796952,1 46035U 20055J   26203.34609979  .00002514  00000+0  92696-4 0  9997,2 46035  53.1582 220.9944 0001050  89.7401 270.3720 15.31722012329514
STARLINK-1560,46036,53.1597,0.0001242,15.31723847,469.8182877878635,471.51953117577796,1 46036U 20055K   26203.45794404  .00002447  00000+0  90522-4 0  9999,2 46036  53.1597 220.4263 0001242  92.7068 267.4075 15.31723847329535
STARLINK-1569,46039,53.1585,0.0001142,15.31726089,469.88009350640095,471.4443592497055,1 46039U 20055N   26203.33675856  .00005041  00000+0  17396-3 0  9998,2 46039  53.1585 220.9013 0001142  79.1619 280.9511 15.31726089329506
STARLINK-1582,46043,53.159,0.0001371,15.31704348,469.7880548354842,471.6660133536325,1 46043U 20055S   26203.73683455  .00000168  00000+0  17194-4 0  9993,2 46043  53.1590 218.3410 0001371  78.5922 281.5233 15.31704348329572
STARLINK-1591,46045,53.1585,0.0001207,15.31716308,469.86472877181313,471.5180359433143,1 46045U 20055U   26203.30413950  .00003383  00000+0  12068-3 0  9995,2 46045  53.1585 221.0527 0001207  78.4823 281.6314 15.31716308329485
STARLINK-1524,46047,53.1585,0.0001158,15.31715302,469.901286465707,471.4874758135802,1 46047U 20055W   26203.24939839  .00001984  00000+0  75649-4 0  9999,2 46047  53.1585 207.9117 0001158  88.1687 271.9448 15.31715302329681
STARLINK-1527,46048,53.158,0.0001643,15.31723132,469.5457816440339,471.79629996624317,1 46048U 20055X   26203.30998396  .00001486  00000+0  59597-4 0  9991,2 46048  53.1580 207.6084 0001643 119.8454 240.2711 15.31723132329660
STARLINK-1540,46051,53.1582,0.0001012,15.31723682,469.9763021177023,471.3625005333306,1 46051U 20055AA  26203.23077428  .00002721  00000+0  99329-4 0  9991,2 46051  53.1582 208.1894 0001012  78.7135 281.3980 15.31723682329697
STARLINK-1541,46052,53.1406,4.28e-05,16.23454021,209.9085161670082,210.47247700071512,1 46052U 20055AB  26203.87596506  .02743720  11904-4  10491-2 0  9999,2 46052  53.1406 167.5298 0000428  77.3030 282.8058 16.23454021330276
STARLINK-1543,46053,53.1599,0.0001246,15.31704852,469.8721634328549,471.5788999757551,1 46053U 20055AC  26203.72479719  .00000491  00000+0  27595-4 0  9994,2 46053  53.1599 205.6968 0001246  91.3970 268.7174 15.31704852329768
STARLINK-1548,46054,53.1585,0.0001087,15.31727948,469.9122210851474,471.4011488322576,1 46054U 20055AD  26203.41252444  .00003012  00000+0  10870-3 0  9994,2 46054  53.1585 207.2254 0001087  72.4982 287.6139 15.31727948329713
STARLINK-1554,46055,53.1604,0.0001389,15.31705997,469.7708120074667,471.67342507059675,1 46055U 20055AE  26203.72014376  .00004235  00000+0  14813-3 0  9998,2 46055  53.1604 205.7361 0001389  98.8029 261.3130 15.31705997329762
STARLINK-1564,46058,53.1578,0.000124,15.30860377,472.39444033091877,474.09358282179073,1 46058U 20055AH  26203.49215648  .00129441  00000+0  42198-2 0  9993,2 46058  53.1578 208.2204 0001240 111.6683 248.4451 15.30860377329704
STARLINK-1570,46059,53.1577,0.0001184,15.3172388,469.85791250505645,471.4797097211276,1 46059U 20055AJ  26203.29132774  .00004865  00000+0  16830-3 0  9997,2 46059  53.1577 207.6136 0001184  81.3605 278.7531 15.31723880329652
